NORAD_CAT_ID,OBJECT_NAME,OBJECT_TYPE,EPOCH,MEAN_MOTION,ECCENTRICITY,INCLINATION,RA_OF_ASC_NODE,ARG_OF_PERICENTER,MEAN_ANOMALY,BSTAR,MEAN_MOTION_DOT,MEAN_MOTION_DDOT,TLE_LINE0,TLE_LINE1,TLE_LINE2,SEMIMAJOR_AXIS,PERIOD,APOGEE,PERIGEE,DECAYED
52363.0,STARLINK-3830,PAYLOAD,2023-09-24 10:40:54,15.08838109,0.0001576,53.2165,267.0104,92.3826,267.7346,-2.9895e-05,-7.64e-06,0.0,0 STARLINK-3830,1 52363U 22045AJ  23267.44508062 -.00000764  00000-0 -29895-4 0  9997,2 52363  53.2165 267.0104 0001576  92.3826 267.7346 15.08838109 80334,6917.886,95.438,540.841,538.661,0.0
52363.0,STARLINK-3830,PAYLOAD,2023-09-25 07:20:55,15.08846029,0.0001514,53.2165,263.1438,89.2851,270.8314,9.8554e-05,1.281e-05,0.0,0 STARLINK-3830,1 52363U 22045AJ  23268.30619362  .00001281  00000-0  98554-4 0  9990,2 52363  53.2165 263.1438 0001514  89.2851 270.8314 15.08846029 80460,6917.862,95.437,540.774,538.68,0.0
52363.0,STARLINK-3830,PAYLOAD,2023-09-25 16:53:14,15.08842624,0.0001637,53.2172,261.3592,79.6606,280.4571,3.6706e-05,2.96e-06,0.0,0 STARLINK-3830,1 52363U 22045AJ  23268.70363798  .00000296  00000-0  36706-4 0  9999,2 52363  53.2172 261.3592 0001637  79.6606 280.4571 15.08842624 80522,6917.872,95.437,540.87,538.605,0.0
52363.0,STARLINK-3830,PAYLOAD,2023-09-26 07:11:42,15.08838776,0.00015,53.2164,258.6827,85.4568,274.6595,7.7419e-05,9.44e-06,0.0,0 STARLINK-3830,1 52363U 22045AJ  23269.29980063  .00000944  00000-0  77419-4 0  9990,2 52363  53.2164 258.6827 0001500  85.4568 274.6595 15.08838776 80618,6917.884,95.438,540.787,538.711,0.0
52363.0,STARLINK-3830,PAYLOAD,2023-09-26 23:05:34,15.08839679,0.0001747,53.2173,255.7111,82.7499,277.3691,5.5328e-05,5.93e-06,0.0,0 STARLINK-3830,1 52363U 22045AJ  23269.96220212  .00000593  00000-0  55328-4 0  9992,2 52363  53.2173 255.7111 0001747  82.7499 277.3691 15.08839679 80719,6917.881,95.438,540.955,538.538,0.0
52363.0,STARLINK-3830,PAYLOAD,2023-09-27 08:37:51,15.08861909,0.0001689,53.2175,253.9215,93.4758,266.6427,0.00017958,2.573e-05,0.0,0 STARLINK-3830,1 52363U 22045AJ  23270.35962032  .00002573  00000-0  17958-3 0  9996,2 52363  53.2175 253.9215 0001689  93.4758 266.6427 15.08861909 80773,6917.813,95.436,540.847,538.51,0.0
52363.0,STARLINK-3830,PAYLOAD,2023-09-28 03:42:31,15.08826252,0.000158,53.2166,250.3589,74.6329,285.4838,-5.484e-05,-1.16e-05,0.0,0 STARLINK-3830,1 52363U 22045AJ  23271.15453218 -.00001160  00000-0 -54840-4 0  9991,2 52363  53.2166 250.3589 0001580  74.6329 285.4838 15.08826252 80893,6917.922,95.438,540.88,538.694,0.0
52363.0,STARLINK-3830,PAYLOAD,2023-09-28 08:28:40,15.08830863,0.0001593,53.2164,249.4643,79.5551,280.562,-5.8331e-05,-1.216e-05,0.0,0 STARLINK-3830,1 52363U 22045AJ  23271.35325007 -.00001216  00000-0 -58331-4 0  9998,2 52363  53.2164 249.4643 0001593  79.5551 280.5620 15.08830863 80928,6917.908,95.438,540.875,538.671,0.0
52363.0,STARLINK-3830,PAYLOAD,2023-09-29 08:19:26,15.08852998,0.0001439,53.217,245.0034,96.6932,263.4224,4.1633e-05,3.75e-06,0.0,0 STARLINK-3830,1 52363U 22045AJ  23272.34683284  .00000375  00000-0  41633-4 0  9992,2 52363  53.2170 245.0034 0001439  96.6932 263.4224 15.08852998 81073,6917.841,95.437,540.701,538.71,0.0
52363.0,STARLINK-3830,PAYLOAD,2023-09-30 03:24:04,15.08839837,0.0001588,53.2169,241.4347,97.7486,262.3686,0.00019428,2.805e-05,0.0,0 STARLINK-3830,1 52363U 22045AJ  23273.14171762  .00002805  00000-0  19428-3 0  9990,2 52363  53.2169 241.4347 0001588  97.7486 262.3686 15.08839837 81199,6917.881,95.438,540.844,538.647,0.0
52363.0,STARLINK-3830,PAYLOAD,2023-10-01 04:50:15,15.08835807,0.0001773,53.2177,236.6836,92.1188,268.0007,-6.2642e-05,-1.285e-05,0.0,0 STARLINK-3830,1 52363U 22045AJ  23274.20157222 -.00001285  00000-0 -62642-4 0  9993,2 52363  53.2177 236.6836 0001773  92.1188 268.0007 15.08835807 81352,6917.893,95.438,540.985,538.532,0.0
52363.0,STARLINK-3830,PAYLOAD,2023-10-01 20:44:06,15.08836842,0.0001471,53.2162,233.7051,81.5898,278.5261,1.7218e-05,-1.4e-07,0.0,0 STARLINK-3830,1 52363U 22045AJ  23274.86396943 -.00000014  00000-0  17218-4 0  9997,2 52363  53.2162 233.7051 0001471  81.5898 278.5261 15.08836842 81457,6917.89,95.438,540.773,538.737,0.0
52363.0,STARLINK-3830,PAYLOAD,2023-10-02 03:05:38,15.08845527,0.000147,53.2156,232.5157,86.4382,273.6779,9.2769e-05,1.189e-05,0.0,0 STARLINK-3830,1 52363U 22045AJ  23275.12892175  .00001189  00000-0  92769-4 0  9992,2 52363  53.2156 232.5157 0001470  86.4382 273.6779 15.08845527 81499,6917.863,95.437,540.745,538.712,0.0
52363.0,STARLINK-3830,PAYLOAD,2023-10-02 14:13:21,15.08836392,0.0001404,53.216,230.4337,90.5315,269.5838,8.9419e-05,1.135e-05,0.0,0 STARLINK-3830,1 52363U 22045AJ  23275.59260640  .00001135  00000-0  89419-4 0  9998,2 52363  53.2160 230.4337 0001404  90.5315 269.5838 15.08836392 81568,6917.891,95.438,540.728,538.785,0.0
52363.0,STARLINK-3830,PAYLOAD,2023-10-03 14:04:08,15.08834301,0.0001645,53.2152,225.9731,91.4932,268.6248,5.2599e-05,5.49e-06,0.0,0 STARLINK-3830,1 52363U 22045AJ  23276.58621137  .00000549  00000-0  52599-4 0  9997,2 52363  53.2152 225.9731 0001645  91.4932 268.6248 15.08834301 81718,6917.898,95.438,540.901,538.625,0.0
52363.0,STARLINK-3830,PAYLOAD,2023-10-03 22:01:04,15.08835048,0.0001407,53.2147,224.4855,98.6591,261.4561,0.00015952,2.251e-05,0.0,0 STARLINK-3830,1 52363U 22045AJ  23276.91741199  .00002251  00000-0  15952-3 0  9998,2 52363  53.2147 224.4855 0001407  98.6591 261.4561 15.08835048 81762,6917.896,95.438,540.734,538.787,0.0
52363.0,STARLINK-3830,PAYLOAD,2023-10-04 05:57:59,15.08853888,0.0001602,53.2144,222.9971,98.4327,261.6847,0.00055773,8.603e-05,0.0,0 STARLINK-3830,1 52363U 22045AJ  23277.24860818  .00008603  00000-0  55773-3 0  9997,2 52363  53.2144 222.9971 0001602  98.4327 261.6847 15.08853888 81810,6917.838,95.437,540.811,538.595,0.0
52363.0,STARLINK-3830,PAYLOAD,2023-10-04 13:54:55,15.08840851,0.000151,53.2151,221.5121,92.4454,267.6711,0.00031775,4.773e-05,0.0,0 STARLINK-3830,1 52363U 22045AJ  23277.57981280  .00004773  00000-0  31775-3 0  9990,2 52363  53.2151 221.5121 0001510  92.4454 267.6711 15.08840851 81860,6917.878,95.438,540.787,538.698,0.0
52363.0,STARLINK-3830,PAYLOAD,2023-10-05 05:48:46,15.08859662,0.0001584,53.2147,218.5362,99.0091,261.1081,0.00096183,0.00015061,0.0,0 STARLINK-3830,1 52363U 22045AJ  23278.24220836  .00015061  00000-0  96183-3 0  9994,2 52363  53.2147 218.5362 0001584  99.0091 261.1081 15.08859662 81969,6917.82,95.436,540.781,538.59,0.0
52363.0,STARLINK-3830,PAYLOAD,2023-10-05 13:45:42,15.08847188,0.0002028,53.2148,217.0524,96.2833,263.8391,0.00058962,9.11e-05,0.0,0 STARLINK-3830,1 52363U 22045AJ  23278.57341157  .00009110  00000-0  58962-3 0  9991,2 52363  53.2148 217.0524 0002028  96.2833 263.8391 15.08847188 82011,6917.858,95.437,541.126,538.32,0.0
52363.0,STARLINK-3830,PAYLOAD,2023-10-06 05:39:33,15.0886482,0.0001881,53.2148,214.0762,125.4717,234.6451,0.00087151,0.00013619,0.0,0 STARLINK-3830,1 52363U 22045AJ  23279.23580300  .00013619  00000-0  87151-3 0  9991,2 52363  53.2148 214.0762 0001881 125.4717 234.6451 15.08864820 82110,6917.805,95.436,540.971,538.368,0.0
52363.0,STARLINK-3830,PAYLOAD,2023-10-07 02:19:36,15.08809122,0.0001609,53.2154,210.2132,90.0334,270.0842,0.0016395,0.00025879,0.0,0 STARLINK-3830,1 52363U 22045AJ  23280.09695004  .00025879  00000-0  16395-2 0  9997,2 52363  53.2154 210.2132 0001609  90.0334 270.0842 15.08809122 82242,6917.975,95.44,540.953,538.727,0.0
52363.0,STARLINK-3830,PAYLOAD,2023-10-07 11:51:55,15.0883744,0.0001577,53.2153,208.4298,93.2171,266.9002,0.0028046,0.00044627,0.0,0 STARLINK-3830,1 52363U 22045AJ  23280.49439495  .00044627  00000-0  28046-2 0  9999,2 52363  53.2153 208.4298 0001577  93.2171 266.9002 15.08837440 82304,6917.888,95.438,540.844,538.662,0.0
52363.0,STARLINK-3830,PAYLOAD,2023-10-07 19:48:50,15.08872828,0.0001522,53.2154,206.9426,94.7207,265.3959,0.0029044,0.00046281,0.0,0 STARLINK-3830,1 52363U 22045AJ  23280.82559011  .00046281  00000-0  29044-2 0  9990,2 52363  53.2154 206.9426 0001522  94.7207 265.3959 15.08872828 82355,6917.78,95.435,540.698,538.592,0.0
52363.0,STARLINK-3830,PAYLOAD,2023-10-07 22:59:36,15.08879276,0.0001494,53.2155,206.3481,95.1055,265.0108,0.0023905,0.00038003,0.0,0 STARLINK-3830,1 52363U 22045AJ  23280.95806645  .00038003  00000-0  23905-2 0  9995,2 52363  53.2155 206.3481 0001494  95.1055 265.0108 15.08879276 82374,6917.76,95.435,540.659,538.592,0.0
52363.0,STARLINK-3830,PAYLOAD,2023-10-08 11:42:40,15.08885496,0.0001555,53.2164,203.9685,88.7785,271.3385,0.00088994,0.00013921,0.0,0 STARLINK-3830,1 52363U 22045AJ  23281.48797294  .00013921  00000-0  88994-3 0  9995,2 52363  53.2164 203.9685 0001555  88.7785 271.3385 15.08885496 82456,6917.741,95.435,540.682,538.531,0.0
52363.0,STARLINK-3830,PAYLOAD,2023-10-08 18:04:13,15.08870466,0.0002561,53.2155,202.7795,77.8762,282.2517,0.00080012,0.0001248,0.0,0 STARLINK-3830,1 52363U 22045AJ  23281.75293477  .00012480  00000-0  80012-3 0  9991,2 52363  53.2155 202.7795 0002561  77.8762 282.2517 15.08870466 82490,6917.787,95.436,541.424,537.881,0.0
52363.0,STARLINK-3830,PAYLOAD,2023-10-09 11:33:28,15.08844495,0.000262,53.2153,199.5083,92.425,267.7042,0.00063329,9.806e-05,0.0,0 STARLINK-3830,1 52363U 22045AJ  23282.48157569  .00009806  00000-0  63329-3 0  9993,2 52363  53.2153 199.5083 0002620  92.4250 267.7042 15.08844495 82609,6917.867,95.437,541.544,537.919,0.0
52363.0,STARLINK-3830,PAYLOAD,2023-10-09 13:08:50,15.08832864,0.0001497,53.2152,199.2116,96.5084,263.6078,0.0027328,0.00043465,0.0,0 STARLINK-3830,1 52363U 22045AJ  23282.54781131  .00043465  00000-0  27328-2 0  9995,2 52363  53.2152 199.2116 0001497  96.5084 263.6078 15.08832864 82615,6917.902,95.438,540.803,538.732,0.0
52363.0,STARLINK-3830,PAYLOAD,2023-10-10 01:51:56,15.08845865,0.0001257,53.2148,196.8342,108.4529,251.6599,0.0017881,0.00028289,0.0,0 STARLINK-3830,1 52363U 22045AJ  23283.07773392  .00028289  00000-0  17881-2 0  9994,2 52363  53.2148 196.8342 0001257 108.4529 251.6599 15.08845865 82693,6917.862,95.437,540.597,538.858,0.0
